GSAT0201 (GALILEO 5)    
1 40128U 14050A   23267.28578809 -.00000031  00000+0  00000+0 0  9995
2 40128  49.9175 313.7687 1608228 141.1322 231.6299  1.85519153 59822
GSAT0202 (GALILEO 6)    
1 40129U 14050B   23267.00611024 -.00000030  00000+0  00000+0 0  9992
2 40129  49.9369 312.8518 1606176 141.9322 230.6061  1.85519823 61989
IRNSS-1C                
1 40269U 14061A   23267.56589740 -.00000168  00000+0  00000+0 0  9991
2 40269   4.0109 112.0937 0020194   4.9846 172.7335  1.00274324 32698
NAVSTAR 72 (USA 258)    
1 40294U 14068A   23265.27031013  .00000013  00000+0  00000+0 0  9995
2 40294  56.1936  69.7574 0049119  62.4237 298.1048  2.00572917 65171
COSMOS 2501             
1 40315U 14075A   23267.12458326  .00000041  00000+0  00000+0 0  9994
2 40315  63.6386 224.9700 0019682 210.6699 149.2054  2.13101230 68608
NAVSTAR 73 (USA 260)    
1 40534U 15013A   23267.40208806  .00000040  00000+0  00000+0 0  9996
2 40534  53.4560 245.4584 0081359  25.5879 334.8060  2.00553376 61838
GSAT0203 (GALILEO 7)    
1 40544U 15017A   23264.67372741 -.00000079  00000+0  00000+0 0  9990
2 40544  56.9063   8.8014 0003705 231.1064 128.8850  1.70476062 52823
GSAT0204 (GALILEO 8)    
1 40545U 15017B   23263.16764989 -.00000078  00000+0  00000+0 0  9992
2 40545  56.9127   8.8568 0003932 215.0847 144.9135  1.70475744 52800
IRNSS-1D                
1 40547U 15018A   23266.88521569 -.00000272  00000+0  00000+0 0  9998
2 40547  28.0351 257.3034 0019356 190.0863 345.4253  1.00267128 30989
BEIDOU-3S IGSO-1S       
1 40549U 15019A   23267.02769505 -.00000127  00000+0  00000+0 0  9991
2 40549  51.0651 307.3411 0040810 197.0780 320.4247  1.00251818 31075
NAVSTAR 74 (USA 262)    
1 40730U 15033A   23267.06529038 -.00000009  00000+0  00000+0 0  9997
2 40730  54.8293 307.9298 0085887  13.9353 346.3673  2.00554115 59992
BEIDOU-3S M2S           
1 40748U 15037A   23267.19969324 -.00000067  00000+0  00000+0 0  9994
2 40748  55.6504 336.0952 0011989 243.6176 116.3190  1.86232970 55554
BEIDOU-3S M1S           
1 40749U 15037B   23265.85897301 -.00000068  00000+0  00000+0 0  9992
2 40749  55.6543 336.1268 0003883 296.4539  63.5659  1.86232793 55525
GSAT0205 (GALILEO 9)    
1 40889U 15045A   23265.86851749  .00000050  00000+0  00000+0 0  9993
2 40889  55.3550 249.1841 0003793   0.5850 359.4092  1.70473149 49992
GSAT0206 (GALILEO 10)   
1 40890U 15045B   23267.26237028  .00000043  00000+0  00000+0 0  9991
2 40890  55.3530 249.1411 0002536 331.2539  28.7239  1.70473149 50044
BEIDOU-3S IGSO-2S       
1 40938U 15053A   23267.37031234 -.00000094  00000+0  00000+0 0  9993
2 40938  50.7804 270.5122 0047620 194.9814 127.2580  1.00278291 29358
NAVSTAR 75 (USA 265)    
1 41019U 15062A   23267.11727636  .00000017  00000+0  00000+0 0  9998
2 41019  56.1787  69.5355 0090005 221.1084 138.2423  2.00562147 57839
GSAT-15                 
1 41028U 15065A   23267.54979987 -.00000266  00000+0  00000+0 0  9993
2 41028   0.0200 198.4511 0002254 327.2229 128.8961  1.00271310 28806
GSAT0209 (GALILEO 12)   
1 41174U 15079A   23265.67431724  .00000032  00000+0  00000+0 0  9994
2 41174  55.3067 128.6955 0002609 337.8564  22.2272  1.70474035 47755
GSAT0208 (GALILEO 11)   
1 41175U 15079B   23266.48053253  .00000032  00000+0  00000+0 0  9992
2 41175  55.3054 128.6715 0001951 350.0504  10.0409  1.70473867 48183
IRNSS-1E                
1 41241U 16003A   23266.88521569 -.00000286  00000+0  00000+0 0  9990
2 41241  31.0219  77.4985 0020962 176.3871 179.0077  1.00267342 28075
NAVSTAR 76 (USA 266)    
1 41328U 16007A   23266.70938541  .00000029  00000+0  00000+0 0  9997
2 41328  55.0232 129.0805 0071657 233.6902 125.7322  2.00574751 55837
COSMOS 2514             
1 41330U 16008A   23267.10599564 -.00000061  00000+0  00000+0 0  9991
2 41330  65.4971 347.0088 0012170 210.7475 149.2331  2.13102552 59370
IRNSS-1F                
1 41384U 16015A   23267.55580278  .00000152  00000+0  00000+0 0  9999
2 41384   2.9739 128.8608 0019064 176.7397 289.9498  1.00278158 27678
BEIDOU-2 IGSO-6         
1 41434U 16021A   23267.34264338 -.00000138  00000+0  00000+0 0  9990
2 41434  58.7836  48.0640 0048057 218.1499 316.8210  1.00278605 27486
IRNSS-1G                
1 41469U 16027A   23267.50350219 -.00000341  00000+0  00000+0 0  9992
2 41469   2.8630 130.4841 0002231   6.1711 177.2001  1.00268941 27176
GSAT0211 (GALILEO 14)   
1 41549U 16030A   23267.18805295  .00000044  00000+0  00000+0 0  9997
2 41549  55.5006 249.1257 0004029 312.9096  47.0486  1.70473238 45677
GSAT0210 (GALILEO 13)   
1 41550U 16030B   23266.89297358  .00000046  00000+0  00000+0 0  9993
2 41550  55.5002 249.1349 0004080 279.8437  80.1031  1.70473408 45666
COSMOS 2516             
1 41554U 16032A   23267.22015385  .00000041  00000+0  00000+0 0  9990
2 41554  63.8650 225.3730 0015332 214.1947 145.6966  2.13106342 56980
BEIDOU-2 G7             
1 41586U 16037A   23267.61229896 -.00000361  00000+0  00000+0 0  9993
2 41586   1.9170  68.6775 0007491 344.5379 280.9325  1.00275289 26796
EUTELSAT 117 WEST B     
1 41589U 16038B   23267.58714712 -.00000019  00000+0  00000+0 0  9999
2 41589   0.0372  20.4834 0000241 245.6558 191.3998  1.00271430 26673
GSAT0207 (GALILEO 15)   
1 41859U 16069A   23267.14132116  .00000032  00000+0  00000+0 0  9991
2 41859  54.9701 128.7221 0002324 314.5421  45.5352  1.70473961 42401
GSAT0212 (GALILEO 16)   
1 41860U 16069B   23266.99595334  .00000031  00000+0  00000+0 0  9999
2 41860  54.9677 128.7230 0001986  10.3768 349.7233  1.70474130 42656
GSAT0213 (GALILEO 17)   
1 41861U 16069C   23265.60241228  .00000031  00000+0  00000+0 0  9997
2 41861  54.9694 128.7677 0002179 272.7679  87.3019  1.70472832 42497
GSAT0214 (GALILEO 18)   
1 41862U 16069D   23266.92284502  .00000031  00000+0  00000+0 0  9996
2 41862  54.9681 128.7250 0001257 282.8193  77.2624  1.70472728 42641
SES-15                  
1 42709U 17026A   23267.57641826  .00000053  00000+0  00000+0 0  9993
2 42709   0.0402  21.2891 0000446 132.1726 288.0520  1.00268080 24140
QZS-2 (MICHIBIKI-2)     
1 42738U 17028A   23267.29247240 -.00000135  00000+0  00000+0 0  9990
2 42738  41.0132 257.5810 0749260 270.3515  80.5873  1.00259686 23144
QZS-3 (MICHIBIKI-3)     
1 42917U 17048A   23267.53868531 -.00000355  00000+0  00000+0 0  9994
2 42917   0.0579 160.0357 0001782  27.0781 136.9823  1.00272488 22267
COSMOS 2522             
1 42939U 17055A   23267.41691158  .00000039  00000+0  00000+0 0  9990
2 42939  64.0991 225.8973 0009230 243.1888 116.7061  2.13101933 46737
QZS-4 (MICHIBIKI-4)     
1 42965U 17062A   23265.52891573 -.00000299  00000+0  00000+0 0  9999
2 42965  40.6285 356.2158 0749730 269.6020  65.3622  1.00275520 21793
BEIDOU-3 M1             
1 43001U 17069A   23265.93635154  .00000042  00000+0  00000+0 0  9999
2 43001  55.8564  96.2054 0007339 298.9986  60.9950  1.86231391 40010
BEIDOU-3 M2             
1 43002U 17069B   23267.48398800  .00000051  00000+0  00000+0 0  9996
2 43002  55.8573  96.1892 0005676 334.4031  25.6392  1.86231052 40033
GSAT0215 (GALILEO 19)   
1 43055U 17079A   23266.23818282  .00000049  00000+0  00000+0 0  9995
2 43055  55.4774 248.9774 0003579 274.1142  85.8385  1.70473897 35974
GSAT0216 (GALILEO 20)   
1 43056U 17079B   23265.35691756  .00000051  00000+0  00000+0 0  9996
2 43056  55.4789 249.0015 0005172 279.0535  80.8810  1.70474069 35972
GSAT0217 (GALILEO 21)   
1 43057U 17079C   23267.33703108  .00000043  00000+0  00000+0 0  9993
2 43057  55.4753 248.9461 0004577 290.4629  69.4793  1.70473965 35995
GSAT0218 (GALILEO 22)   
1 43058U 17079D   23267.55708086  .00000042  00000+0  00000+0 0  9997
2 43058  55.4754 248.9377 0005612 275.3375  84.5889  1.70473949 36025
BEIDOU-3 M7             
1 43107U 18003A   23267.23472374 -.00000069  00000+0  00000+0 0  9993
2 43107  55.1067 336.8018 0003076  76.6166 283.4762  1.86232353 38789
BEIDOU-3 M8             
1 43108U 18003B   23267.17299064 -.00000069  00000+0  00000+0 0  9990
2 43108  55.0998 336.7907 0004370 246.3350 113.6778  1.86230813 38798
BEIDOU-3 M4             
1 43207U 18018A   23267.07827649  .00000049  00000+0  00000+0 0  9998
2 43207  55.8161  96.2654 0004338  18.4408 341.6446  1.86231261 38176
BEIDOU-3 M3             
1 43208U 18018B   23264.99712253  .00000036  00000+0  00000+0 0  9997
2 43208  55.8139  96.3396 0005293 317.4976  42.5278  1.86231306 38135
BEIDOU-3 M9             
1 43245U 18029A   23266.29379146 -.00000066  00000+0  00000+0 0  9999
2 43245  55.0011 334.5669 0001593 226.9511 133.0958  1.86232419 37311
BEIDOU-3 M10            
1 43246U 18029B   23267.29769466 -.00000065  00000+0  00000+0 0  9998
2 43246  54.9973 334.5603 0002812 347.6938  12.3599  1.86232797 37313
IRNSS-1I                
1 43286U 18035A   23264.80404358  .00000097  00000+0  00000+0 0  9993
2 43286  29.2891  89.9134 0019915 176.9905  78.1525  1.00277324 20053
COSMOS 2527             
1 43508U 18053A   23266.90640892  .00000069  00000+0  00000+0 0  9997
2 43508  65.0994 107.2932 0007426 215.1711 144.8588  2.13102359 41027
BEIDOU-2 IGSO-7         
1 43539U 18057A   23267.59120984 -.00000165  00000+0  00000+0 0  9994
2 43539  55.1185 171.6823 0064037 230.6035 287.5224  1.00277190 19151
GSAT0221 (GALILEO 25)   
1 43564U 18060A   23259.83127371 -.00000085  00000+0  00000+0 0  9992
2 43564  57.2861   8.8642 0002955 251.6027 108.3809  1.70476287 32045
GSAT0222 (GALILEO 26)   
1 43565U 18060B   23262.39572637 -.00000079  00000+0  00000+0 0  9990
2 43565  57.2906   8.7965 0003780 215.9830 144.0147  1.70475919 32138
GSAT0219 (GALILEO 23)   
1 43566U 18060C   23267.31070046 -.00000085  00000+0  00000+0 0  9992
2 43566  57.2900   8.6662 0002535 256.4137 103.5787  1.70476004 32195
GSAT0220 (GALILEO 24)   
1 43567U 18060D   23263.42504255 -.00000078  00000+0  00000+0 0  9997
2 43567  57.2896   8.7718 0002906 252.8548 107.1378  1.70475951 32119
BEIDOU-3 M5             
1 43581U 18062A   23266.98095736  .00000020  00000+0  00000+0 0  9994
2 43581  54.1738 216.2432 0004705 286.1863  73.7437  1.86231766 35066
